NORAD_CAT_ID,OBJECT_NAME,OBJECT_TYPE,EPOCH,MEAN_MOTION,ECCENTRICITY,INCLINATION,RA_OF_ASC_NODE,ARG_OF_PERICENTER,MEAN_ANOMALY,BSTAR,MEAN_MOTION_DOT,MEAN_MOTION_DDOT,TLE_LINE0,TLE_LINE1,TLE_LINE2,SEMIMAJOR_AXIS,PERIOD,APOGEE,PERIGEE,DECAYED
51747.0,STARLINK-3446,PAYLOAD,2022-07-27 22:00:00,15.08876484,0.0001747,53.2188,128.2899,57.0205,240.8676,-0.0036448,-0.00057887,0.0,0 STARLINK-3446,1 51747U 22016AK  22208.91667824 -.00057887  00000-0 -36448-2 0  9996,2 51747  53.2188 128.2899 0001747  57.0205 240.8676 15.08876484  1308,6917.769,95.435,540.842,538.425,0.0
51747.0,STARLINK-3446,PAYLOAD,2022-07-28 08:00:01,15.08832721,0.0001791,53.2186,126.4203,50.2504,352.1406,-0.00028793,-4.867e-05,0.0,0 STARLINK-3446,1 51747U 22016AK  22209.33334491 -.00004867  00000-0 -28793-3 0  9999,2 51747  53.2186 126.4203 0001791  50.2504 352.1406 15.08832721 25378,6917.903,95.438,541.007,538.529,0.0
51747.0,STARLINK-3446,PAYLOAD,2022-07-28 14:00:01,15.08812629,0.0001653,53.2189,125.2969,56.8555,264.2335,0.0022895,0.0003631,0.0,0 STARLINK-3446,1 51747U 22016AK  22209.58334491  .00036310  00000-0  22895-2 0  9998,2 51747  53.2189 125.2969 0001653  56.8555 264.2335 15.08812629  1308,6917.964,95.439,540.9730000000002,538.686,0.0
51747.0,STARLINK-3446,PAYLOAD,2022-07-28 22:00:00,15.08854631,0.0001720999999999,53.2191,123.8014,56.8971,275.7671,-0.0014644,-0.00023528,0.0,0 STARLINK-3446,1 51747U 22016AK  22209.91667824 -.00023528  00000-0 -14644-2 0  9996,2 51747  53.2191 123.8014 0001721  56.8971 275.7671 15.08854631  1303,6917.8359999999975,95.437,540.891,538.51,0.0
51747.0,STARLINK-3446,PAYLOAD,2022-07-29 06:00:00,15.08828911,0.0001807,53.2186,122.3061,51.5855,292.6802,0.0020744,0.00032871,0.0,0 STARLINK-3446,1 51747U 22016AK  22210.25001157  .00032871  00000-0  20744-2 0  9993,2 51747  53.2186 122.3061 0001807  51.5855 292.6802 15.08828911 25505,6917.9140000000025,95.438,541.029,538.529,0.0
51747.0,STARLINK-3446,PAYLOAD,2022-07-29 14:00:01,15.08832872,0.0001616,53.2187,120.8082,59.0481,296.8201,0.0010161,0.00015917,0.0,0 STARLINK-3446,1 51747U 22016AK  22210.58334491  .00015917  00000-0  10161-2 0  9993,2 51747  53.2187 120.8082 0001616  59.0481 296.8201 15.08832872  1300,6917.901999999999,95.438,540.885,538.649,0.0
51747.0,STARLINK-3446,PAYLOAD,2022-07-29 22:00:00,15.08845023,0.0001668,53.2188,119.313,57.0808,310.3774,-0.0025861,-0.00041216,0.0,0 STARLINK-3446,1 51747U 22016AK  22210.91667824 -.00041216  00000-0 -25861-2 0  9995,2 51747  53.2188 119.3130 0001668  57.0808 310.3774 15.08845023 25604,6917.865,95.437,540.884,538.576,0.0
51747.0,STARLINK-3446,PAYLOAD,2022-07-30 14:00:01,15.08802668,0.0001583,53.2181,116.3195,60.1515,330.4749,0.0026836,0.00042636,0.0,0 STARLINK-3446,1 51747U 22016AK  22211.58334491  .00042636  00000-0  26836-2 0  9998,2 51747  53.2181 116.3195 0001583  60.1515 330.4749 15.08802668 25716,6917.995,95.44,540.955,538.764,0.0
51747.0,STARLINK-3446,PAYLOAD,2022-07-30 22:00:00,15.08846759,0.0001703,53.2181,114.8244,58.6301,343.5653,-0.0018640999999999,-0.00029838,0.0,0 STARLINK-3446,1 51747U 22016AK  22211.91667824 -.00029838  00000-0 -18641-2 0  9990,2 51747  53.2181 114.8244 0001703  58.6301 343.5653 15.08846759  1300,6917.86,95.437,540.903,538.547,0.0
51747.0,STARLINK-3446,PAYLOAD,2022-07-31 06:00:02,15.0882691,0.0001771999999999,53.2176,113.3286,53.7508,0.095,0.00099393,0.0001556,0.0,0 STARLINK-3446,1 51747U 22016AK  22212.25002315  .00015560  00000-0  99393-3 0  9995,2 51747  53.2176 113.3286 0001772  53.7508   0.0950 15.08826910 25819,6917.92,95.438,541.011,538.56,0.0
51747.0,STARLINK-3446,PAYLOAD,2022-07-31 14:00:01,15.08812641,0.0001641999999999,53.2175,111.8306,62.0832,3.2958,0.0027991,0.00044508,0.0,0 STARLINK-3446,1 51747U 22016AK  22212.58334491  .00044508  00000-0  27991-2 0  9992,2 51747  53.2175 111.8306 0001642  62.0832   3.2958 15.08812641  1300,6917.964,95.439,540.965,538.693,0.0
51747.0,STARLINK-3446,PAYLOAD,2022-07-31 22:00:00,15.08854309,0.0001786,53.2175,110.3356,60.0733,16.8867,-0.001773,-0.00028406,0.0,0 STARLINK-3446,1 51747U 22016AK  22212.91667824 -.00028406  00000-0 -17730-2 0  9999,2 51747  53.2175 110.3356 0001786  60.0733  16.8867 15.08854309  1302,6917.837,95.437,540.937,538.466,0.0
51747.0,STARLINK-3446,PAYLOAD,2022-08-01 06:00:00,15.08841689,0.0001833,53.2172,108.8395,55.3486,33.2097,0.00069603,0.00010807,0.0,0 STARLINK-3446,1 51747U 22016AK  22213.25001157  .00010807  00000-0  69603-3 0  9999,2 51747  53.2172 108.8395 0001833  55.3486  33.2097 15.08841689 25962,6917.875,95.437,541.008,538.472,0.0
51747.0,STARLINK-3446,PAYLOAD,2022-08-01 14:00:01,15.08826353,0.0001723,53.2172,107.3414,63.0122,37.1565,0.00282,0.00044862,0.0,0 STARLINK-3446,1 51747U 22016AK  22213.58334491  .00044862  00000-0  28200-2 0  9990,2 51747  53.2172 107.3414 0001723  63.0122  37.1565 15.08826353  1305,6917.922,95.438,540.979,538.595,0.0
51747.0,STARLINK-3446,PAYLOAD,2022-08-01 22:00:00,15.08870638,0.0001859,53.2172,105.8463,60.151,51.6141,-0.0025328,-0.00040406,0.0,0 STARLINK-3446,1 51747U 22016AK  22213.91667824 -.00040406  00000-0 -25328-2 0  9996,2 51747  53.2172 105.8463 0001859  60.1510  51.6141 15.08870638  1307,6917.7869999999975,95.436,540.938,538.366,0.0
51747.0,STARLINK-3446,PAYLOAD,2022-08-02 06:00:02,15.08844048,0.0001843,53.2172,104.35,55.2262,68.215,-0.0010125,-0.00016368,0.0,0 STARLINK-3446,1 51747U 22016AK  22214.25002315 -.00016368  00000-0 -10125-2 0  9991,2 51747  53.2172 104.3500 0001843  55.2262  68.2150 15.08844048 26111,6917.868,95.437,541.008,538.4580000000002,0.0
51747.0,STARLINK-3446,PAYLOAD,2022-08-02 14:00:01,15.088146300000002,0.0001716,53.2173,102.852,61.99,72.98899999999998,0.0026913,0.00042775,0.0,0 STARLINK-3446,1 51747U 22016AK  22214.58334491  .00042775  00000-0  26913-2 0  9991,2 51747  53.2173 102.8520 0001716  61.9900  72.9890 15.08814630 26161,6917.958000000001,95.439,541.01,538.636,0.0
51747.0,STARLINK-3446,PAYLOAD,2022-08-03 06:00:00,15.08850885,0.0001896,53.2175,99.8607,56.1756,101.9802,-0.00023299,-3.995e-05,0.0,0 STARLINK-3446,1 51747U 22016AK  22215.25001157 -.00003995  00000-0 -23299-3 0  9994,2 51747  53.2175  99.8607 0001896  56.1756 101.9802 15.08850885 26267,6917.847,95.437,541.024,538.4,0.0
51747.0,STARLINK-3446,PAYLOAD,2022-08-03 14:00:01,15.08839165,0.0001733999999999,53.2178,98.3626,62.6044,107.1632,-0.00043637,-7.226e-05,0.0,0 STARLINK-3446,1 51747U 22016AK  22215.58334491 -.00007226  00000-0 -43637-3 0  9999,2 51747  53.2178  98.3626 0001734  62.6044 107.1632 15.08839165  1303,6917.8830000000025,95.438,540.948,538.548,0.0
51747.0,STARLINK-3446,PAYLOAD,2022-08-03 22:00:01,15.08832435,0.0001835,53.2179,96.8677,58.0464,123.3757,-0.001001,-0.00016181,0.0,0 STARLINK-3446,1 51747U 22016AK  22215.91668981 -.00016181  00000-0 -10010-2 0  9998,2 51747  53.2179  96.8677 0001835  58.0464 123.3757 15.08832435  1301,6917.904,95.438,541.038,538.499,0.0
51747.0,STARLINK-3446,PAYLOAD,2022-08-04 06:00:00,15.08840482,0.0001843,53.2179,95.3713,56.2132,136.7207,-0.00085956,-0.00013942,0.0,0 STARLINK-3446,1 51747U 22016AK  22216.25001157 -.00013942  00000-0 -85956-3 0  9996,2 51747  53.2179  95.3713 0001843  56.2132 136.7207 15.08840482 26415,6917.879,95.438,541.019,538.469,0.0
51747.0,STARLINK-3446,PAYLOAD,2022-08-04 14:00:01,15.08819568,0.000173,53.2183,93.8735,63.598,140.9311,0.0024111999999999,0.00038274,0.0,0 STARLINK-3446,1 51747U 22016AK  22216.58334491  .00038274  00000-0  24112-2 0  9991,2 51747  53.2183  93.8735 0001730  63.5980 140.9311 15.08819568  1309,6917.943,95.439,541.005,538.611,0.0
51747.0,STARLINK-3446,PAYLOAD,2022-08-04 22:00:00,15.08844939,0.0001867,53.2184,92.3787,59.1476,156.9701,-0.00079157,-0.00012866,0.0,0 STARLINK-3446,1 51747U 22016AK  22216.91667824 -.00012866  00000-0 -79157-3 0  9998,2 51747  53.2184  92.3787 0001867  59.1476 156.9701 15.08844939  1303,6917.865,95.437,541.0219999999998,538.439,0.0
51747.0,STARLINK-3446,PAYLOAD,2022-08-05 06:00:02,15.088594699999998,0.000183,53.2183,90.8821,58.1741,169.5989,-0.0013586,-0.00021857,0.0,0 STARLINK-3446,1 51747U 22016AK  22217.25002315 -.00021857  00000-0 -13586-2 0  9997,2 51747  53.2183  90.8821 0001830  58.1741 169.5989 15.08859470 26567,6917.821,95.436,540.952,538.42,0.0
51747.0,STARLINK-3446,PAYLOAD,2022-08-05 14:00:01,15.08847549,0.0001675,53.2186,89.3844,65.3553,174.0304,-0.00037166,-6.199e-05,0.0,0 STARLINK-3446,1 51747U 22016AK  22217.58335648 -.00006199  00000-0 -37166-3 0  9994,2 51747  53.2186  89.3844 0001675  65.3553 174.0304 15.08847549  1307,6917.857,95.437,540.881,538.564,0.0
51747.0,STARLINK-3446,PAYLOAD,2022-08-05 22:00:00,15.08832412,0.0001759,53.2186,87.8898,58.9236,192.0042,-0.00051891,-8.535e-05,0.0,0 STARLINK-3446,1 51747U 22016AK  22217.91667824 -.00008535  00000-0 -51891-3 0  9992,2 51747  53.2186  87.8898 0001759  58.9236 192.0042 15.08832412  1300,6917.904,95.438,540.985,538.552,0.0
51747.0,STARLINK-3446,PAYLOAD,2022-08-06 08:00:01,15.08847786,0.0001681,53.2185,86.0186,61.1059,294.3001,-0.0016547999999999,-0.00026533,0.0,0 STARLINK-3446,1 51747U 22016AK  22218.33334491 -.00026533  00000-0 -16548-2 0  9997,2 51747  53.2185  86.0186 0001681  61.1059 294.3001 15.08847786 26727,6917.857,95.437,540.884,538.559,0.0
51747.0,STARLINK-3446,PAYLOAD,2022-08-06 14:00:01,15.0882691,0.0001629,53.2186,84.8957,66.8464,207.2583,0.0022953,0.00036418,0.0,0 STARLINK-3446,1 51747U 22016AK  22218.58334491  .00036418  00000-0  22953-2 0  9992,2 51747  53.2186  84.8957 0001629  66.8464 207.2583 15.08826910  1305,6917.92,95.438,540.9119999999998,538.658,0.0
51747.0,STARLINK-3446,PAYLOAD,2022-08-06 22:00:00,15.08844306,0.000175,53.2186,83.4013,60.772,224.9274,-0.00041302,-6.856e-05,0.0,0 STARLINK-3446,1 51747U 22016AK  22218.91667824 -.00006856  00000-0 -41302-3 0  9993,2 51747  53.2186  83.4013 0001750  60.7720 224.9274 15.08844306  1308,6917.8669999999975,95.437,540.943,538.5219999999998,0.0
